{
  "norad_id": 29045,
  "name": "JCSAT-5A",
  "history": [
    {
      "epoch": "2026-04-11T20:31:38.396928Z",
      "apogee_km": 35791.29767595053,
      "perigee_km": 35776.3639069588,
      "latitude_deg": -0.22498379290668374,
      "longitude_deg": 132.0479175625662,
      "height_km": 35788.75254359955,
      "semi_major_axis_km": 42161.96779145467,
      "eccentricity": 0.0001771,
      "inclination_deg": 0.9362,
      "raan_deg": 84.9434,
      "arg_perigee_deg": 331.6177,
      "mean_anomaly_deg": 223.4809,
      "mean_motion_rev_day": 1.00281646
    },
    {
      "epoch": "2026-04-13T05:07:38.653248Z",
      "apogee_km": 35792.22927841052,
      "perigee_km": 35780.320361936036,
      "latitude_deg": -0.5405185318686745,
      "longitude_deg": 132.07240365065297,
      "height_km": 35779.88185151335,
      "semi_major_axis_km": 42164.411820173285,
      "eccentricity": 0.00014122,
      "inclination_deg": 0.9397,
      "raan_deg": 84.9265,
      "arg_perigee_deg": 322.053,
      "mean_anomaly_deg": 3.4096,
      "mean_motion_rev_day": 1.00272927
    },
    {
      "epoch": "2026-04-14T19:08:38.561856Z",
      "apogee_km": 35792.425039379996,
      "perigee_km": 35780.68638892838,
      "latitude_deg": 0.06260293024553173,
      "longitude_deg": 132.0609145599323,
      "height_km": 35790.966105485495,
      "semi_major_axis_km": 42164.69271415419,
      "eccentricity": 0.0001392,
      "inclination_deg": 0.9438,
      "raan_deg": 84.8972,
      "arg_perigee_deg": 324.421,
      "mean_anomaly_deg": 212.886,
      "mean_motion_rev_day": 1.00271925
    },
    {
      "epoch": "2026-04-15T18:04:35.253120Z",
      "apogee_km": 35792.59245636287,
      "perigee_km": 35780.82846392149,
      "latitude_deg": 0.3004430385632735,
      "longitude_deg": 132.06541982407632,
      "height_km": 35791.84006015677,
      "semi_major_axis_km": 42164.847460142184,
      "eccentricity": 0.0001395,
      "inclination_deg": 0.9465,
      "raan_deg": 84.8785,
      "arg_perigee_deg": 326.8218,
      "mean_anomaly_deg": 195.4321,
      "mean_motion_rev_day": 1.00271373
    },
    {
      "epoch": "2026-04-16T19:45:22.616352Z",
      "apogee_km": 35792.73819919084,
      "perigee_km": 35781.01632522595,
      "latitude_deg": -0.12141308643129492,
      "longitude_deg": 132.05322828430437,
      "height_km": 35790.91509255728,
      "semi_major_axis_km": 42165.0142622084,
      "eccentricity": 0.000139,
      "inclination_deg": 0.9495,
      "raan_deg": 84.8604,
      "arg_perigee_deg": 329.219,
      "mean_anomaly_deg": 219.3032,
      "mean_motion_rev_day": 1.00270778
    }
  ]
}